#cP2024  2 11 12  0  0.00000000     577 d+D   IGS20 EXT AIUB
## 2301  43200.00000000   300.00000000 60351 0.5000000000000
+   78   G01G02G03G04G05G06G07G08G09G10G11G12G13G14G15G16G17
+        G18G19G20G21G22G23G24G25G26G27G28G29G30G31G32R01R02
+        R03R04R05R07R08R09R11R12R13R14R15R16R17R18R19R20R21
+        R22R24E02E03E04E05E07E08E09E10E11E12E13E14E15E18E19
+        E21E24E25E26E27E30E31E33E34E36  0  0  0  0  0  0  0
++         6  7  6  6  7  6  7  6  6  6  7  7  6  5  7  7  7
++         7  7  7  7  7  6  6  5  6  6  5  7  6  7  5  9  7
++         8  8  8  8  8  6  6  7  7  6  7  6  8  7  9  9  8
++         7  8  6  6  6  6  7  6  7  7  7  7  6  7  7  7  6
++         5  6  6  6  5  6  5  6  6  7  0  0  0  0  0  0  0
%c M  cc GPS ccc cccc cccc cccc cccc ccccc ccccc ccccc ccccc
%c cc cc ccc ccc cccc cccc cccc cccc ccccc ccccc ccccc ccccc
%f  1.2500000  1.025000000  0.00000000000  0.000000000000000
%f  0.0000000  0.000000000  0.00000000000  0.000000000000000
%i    0    0    0    0      0      0      0      0         0
%i    0    0    0    0      0      0      0      0         0
/* Center for Orbit Determination in Europe (CODE)          
/* Ultra-rapid GRE orbits starting year-day 24042 12 hour   
/* Observed/predicted: 24/24 hours (data used up to 043L)   
/* PCV:IGS20      OL/AL:FES2014b NONE     YN ORB:CoN CLK:BRD
*  2024  2 13 10  5  0.00000000
PG01 -14332.946202   2462.793931  21907.907126    169.371404               P   P
PG02 -17498.295970  -5145.598306  19890.681882   -486.140945               P   P
PG03 -19866.145699   7212.115449  15871.297715    190.284123               P   P
PG04 -25887.123773  -1080.320319  -6142.073581    290.578216               P   P
PG05  14944.167337   4814.209190 -21605.791887   -161.645616               P   P
PG06   5278.542829  25435.874662   5310.695342    408.837256               P   P
PG07  -8827.474185  15479.473708 -19052.850159    -60.878570               P   P
PG08 -26022.383745  -5736.807126  -2889.377025   -166.794074               P   P
PG09 -18766.204772   9007.566180 -16612.728420     90.663050               P   P
PG10   8050.802353 -22193.950669  12041.312484      0.185690               P   P
PG11  11893.900552  22854.880380  -6529.317892   -574.268987               P   P
PG12  20419.195719  -5432.160145  15765.913356   -477.541469               P   P
PG13  20689.618197  13771.901128  -9874.325237    625.117070               P   P
PG14 -11577.043365  22284.844437   8373.780741    324.556143               P   P
PG15  26296.888489   3227.691539  -3553.915748    127.242563               P   P
PG16 -10221.924361 -11451.756790 -21995.929891   -363.635426               P   P
PG17  -6054.709566  14111.136320  22107.423397    717.138830               P   P
PG18   7933.454667 -16607.858714 -19063.754913   -554.576180               P   P
PG19   4923.992308  16018.610315  20504.503063    440.038722               P   P
PG20   6269.403674  16932.850562 -19470.907813    387.669393               P   P
PG21 -18252.126547 -11118.157678  16849.556023    135.093969               P   P
PG22  -5924.753387  21199.156855  15498.446266     31.965550               P   P
PG23  16391.180582 -20767.677084    -51.173658    155.240788               P   P
PG24  18108.006698   7629.877826  17642.764795   -430.968508               P   P
PG25  19693.959994 -15701.613881   7641.024034    488.443071               P   P
PG26  -2358.660438 -19533.001068 -17820.788947    190.691406               P   P
PG27 -18982.977280 -12982.249798 -13931.137918     -3.635079               P   P
PG28  -4204.367333 -25007.508125   7885.084787   -129.564340               P   P
PG29  20563.968419  -5922.703532 -15846.225739   -607.068226               P   P
PG30  -1179.093981  23302.897441 -12308.520738   -433.168097               P   P
PG31  -9797.703050 -24388.041022  -1932.204861   -227.749650               P   P
PG32   1296.603032 -15270.820440  21898.386006   -611.376662               P   P
PR01 -12191.019701  -7360.702726  21165.506207     77.054542               P   P
PR02 -24031.703088    864.419021   8658.220458    -22.462569               P   P
PR03 -22195.316749   9047.717567  -8764.190193     94.369985               P   P
PR04  -8375.495390  11698.076916 -21033.869572    223.265027               P   P
PR05   9955.269572   8325.922537 -21938.751202    126.797706               P   P
PR07  21622.478835  -9365.065178   9748.076402     75.694028               P   P
PR08   7925.563139 -11889.930001  21184.638576    -74.341108               P   P
PR09  11592.988623    480.708755  22734.521394    169.792438               P   P
PR11   7293.572488 -24450.014280   -306.773012     34.518036               P   P
PR12  -3261.416487 -18058.533898 -17692.627004     36.663376               P   P
PR13 -10588.025553  -3223.772555 -23002.686204    -44.279732               P   P
PR14 -12541.679092  16593.939549 -14749.415245     26.058406               P   P
PR15  -6751.658604  24528.461439   1844.901913     82.238723               P   P
PR16   3108.237527  18205.001559  17580.750273     23.220666               P   P
PR17 -10156.104376   4397.544273  22990.530796     60.862950               P   P
PR18   2780.956821  16379.871497  19351.366748    127.157561               P   P
PR19  12913.477294  20738.923353   7332.956370   -265.636980               P   P
PR20  17853.733345  12302.991819 -13385.942607   -108.178558               P   P
PR21   9968.050926  -4459.654745 -23050.178807    -76.594332               P   P
PR22  -2994.516640 -17280.834155 -18501.401397    107.889993               P   P
PR24 -18488.405783 -10941.976049  13765.731352    -43.756326               P   P
PE02 -17107.312888  23831.122579   4019.666135    103.034138               P   P
PE03 -12612.612543  13900.055817 -22887.701061    -93.528698               P   P
PE04  -9979.791689 -17377.392431  21794.491273   -326.245258               P   P
PE05 -27529.946424   2362.481813 -10613.416820   4719.624005               P   P
PE07  26258.612747  10851.685988  -8305.053588   -103.542665               P   P
PE08   9251.695599  17300.249410 -22165.019283   -223.185946               P   P
PE09 -26195.654941 -10864.055112   8466.746054   -334.479239               P   P
PE10 -13800.155961 -25166.675080   7240.378901   -601.602339               P   P
PE11 -17341.866773 -17500.956834  16416.047565   3249.083717               P   P
PE12  -8515.855373 -28292.976652  -1981.498290   -904.439773               P   P
PE13  17169.663620  18085.018807 -15928.214902    -20.159237               P   P
PE14   3221.371465  17348.595842  19143.825037 999999.999999               P   P
PE15   8187.246489  28323.907650   2558.220891    -85.559242               P   P
PE18   9358.864842 -17762.047623 -23061.047468 999999.999999               P   P
PE19  14940.766319 -12710.332058  22175.072569   -623.617070               P   P
PE21  23177.034411 -12465.349014  13535.808710   -578.794709               P   P
PE24 -15828.911909  -7171.536085 -23987.684276   -595.802042               P   P
PE25 -23180.539192  12123.346523 -13864.326924      0.831711               P   P
PE26  15903.511434  -3321.917592 -24733.077674    367.492306               P   P
PE27  16043.501610   6732.379361  23938.449163   -273.603525               P   P
PE30   -726.985412  21865.669066  19928.154177   -903.324877               P   P
PE31    445.858994 -21716.099167 -20107.311117    -15.899494               P   P
PE33   5820.335185 -21406.745547 -19590.329124      7.523374               P   P
PE34  -5411.096594  21826.535161  19250.054869    -94.399529               P   P
PE36 -15976.761923   2532.397291  24797.669273   -185.328172               P   P
EOF
